ONEWEB-0553             
1 56055U 23043K   23223.05199110  .00002787  00000+0  29423-3 0  9997
2 56055  86.8998  89.7160 0001601 131.8985 228.2379 14.88914480 21570
ONEWEB-0554             
1 56056U 23043L   23222.38890022  .00002848  00000+0  30078-3 0  9999
2 56056  86.8916  89.8809 0004285  71.4172 288.7520 14.88907630 21477
ONEWEB-0555             
1 56057U 23043M   23222.75325771  .00002157  00000+0  22718-3 0  9990
2 56057  86.8959  89.7800 0002708  52.0319 308.1152 14.88896470 21524
ONEWEB-0557             
1 56058U 23043N   23223.04619832  .00002913  00000+0  30761-3 0  9995
2 56058  86.8921  89.6115 0003031  72.9113 287.2446 14.88923869 21576
ONEWEB-0558             
1 56059U 23043P   23222.91668981 -.01269499  00000+0 -73870+0 0  9991
2 56059  87.4480  92.5816 0004140 114.7119 226.4013 14.12205779 21438
ONEWEB-0559             
1 56060U 23043Q   23222.91668981 -.01196810  00000+0 -61769+0 0  9993
2 56060  87.4583  92.5023 0002000 144.2650  83.1010 14.18478774 21444
ONEWEB-0566             
1 56061U 23043R   23222.91668981 -.01232722  00000+0 -72205+0 0  9994
2 56061  87.4331  92.6022 0002893 130.5059 307.9816 14.11744537 21422
ONEWEB-0568             
1 56062U 23043S   23222.36890471  .00002233  00000+0  23509-3 0  9991
2 56062  86.9038  90.0257 0002950  57.0415 303.1095 14.88934978 21461
